[{"OBJECT_NAME":"TIANHUI 2-01B","OBJECT_ID":"2019-024C","EPOCH":"2026-03-09T12:59:11.556672","MEAN_MOTION":15.16798968,"ECCENTRICITY":0.0002051,"INCLINATION":97.4822,"RA_OF_ASC_NODE":73.7938,"ARG_OF_PERICENTER":86.2099,"MEAN_ANOMALY":273.9369,"EPHEMERIS_TYPE":0,"CLASSIFICATION_TYPE":"U","NORAD_CAT_ID":44209,"ELEMENT_SET_NO":999,"REV_AT_EPOCH":37960,"BSTAR":0.00014951,"MEAN_MOTION_DOT":2.87e-5,"MEAN_MOTION_DDOT":0},{"OBJECT_NAME":"AAC-HSI-SAT2","OBJECT_ID":"2023-084BX","EPOCH":"2026-03-09T22:35:55.269024","MEAN_MOTION":15.19636036,"ECCENTRICITY":0.00130289,"INCLINATION":97.809,"RA_OF_ASC_NODE":215.6104,"ARG_OF_PERICENTER":163.6143,"MEAN_ANOMALY":196.5515,"EPHEMERIS_TYPE":0,"CLASSIFICATION_TYPE":"U","NORAD_CAT_ID":56995,"ELEMENT_SET_NO":999,"REV_AT_EPOCH":15126,"BSTAR":0.00025757454,"MEAN_MOTION_DOT":5.427e-5,"MEAN_MOTION_DDOT":0}]
